{"type": "FeatureCollection", "features": [ {"type": "Feature", "properties": {"norad_id": 33492, "name": "GOSAT (IBUKI)", "group": "resource", "lat": -15.102096399414643, "lon": 103.37504250538198, "alt_km": 673.9516217577902, "timestamp": "2025-12-18T15:47:10.877106+00:00", "meta": {"OBJECT_NAME": "GOSAT (IBUKI)", "OBJECT_ID": "2009-002A", "EPOCH": "2025-12-18T06:02:14.885088", "MEAN_MOTION": 14.67536216, "ECCENTRICITY": 9.866e-05, "INCLINATION": 98.0772, "RA_OF_ASC_NODE": 100.7783, "ARG_OF_PERICENTER": 99.2052, "MEAN_ANOMALY": 260.9264, "EPHEMERIS_TYPE": 0, "CLASSIFICATION_TYPE": "U", "NORAD_CAT_ID": 33492, "ELEMENT_SET_NO": 999, "REV_AT_EPOCH": 90492, "BSTAR": 0.00012553614, "MEAN_MOTION_DOT": 6.64e-06, "MEAN_MOTION_DDOT": 0}, "tle": {"line1": "1 33492U 09002A   25352.25156117  .00000664  00000+0  12554-3 0  9992", "line2": "2 33492  98.0772 100.7783 0000986  99.2052 260.9264 14.67536216904926"}}, "geometry": {"type": "Point", "coordinates": [103.37504250538198, -15.102096399414643]}}, {"type": "Feature", "properties": {"norad_id": 35681, "name": "DEIMOS-1", "group": "resource", "lat": -39.86997291157024, "lon": -33.51602994493866, "alt_km": 653.4322322164007, "timestamp": "2025-12-18T15:47:10.877117+00:00", "meta": {"OBJECT_NAME": "DEIMOS-1", "OBJECT_ID": "2009-041A", "EPOCH": "2025-12-18T06:39:01.414080", "MEAN_MOTION": 14.74960066, "ECCENTRICITY": 0.00026555, "INCLINATION": 97.7142, "RA_OF_ASC_NODE": 152.6219, "ARG_OF_PERICENTER": 70.9033, "MEAN_ANOMALY": 289.2464, "EPHEMERIS_TYPE": 0, "CLASSIFICATION_TYPE": "U", "NORAD_CAT_ID": 35681, "ELEMENT_SET_NO": 999, "REV_AT_EPOCH": 88021, "BSTAR": 5.595024e-05, "MEAN_MOTION_DOT": 3.29e-06, "MEAN_MOTION_DDOT": 0}, "tle": {"line1": "1 35681U 09041A   25352.27709970  .00000329  00000+0  55950-4 0  9996", "line2": "2 35681  97.7142 152.6219 0002655  70.9033 289.2464 14.74960066880218"}}, "geometry": {"type": "Point", "coordinates": [-33.51602994493866, -39.86997291157024]}}, {"type": "Feature", "properties": {"norad_id": 35682, "name": "DUBAISAT-1", "group": "resource", "lat": 31.74622599585798, "lon": -51.77064800345346, "alt_km": 649.9790102233192, "timestamp": "2025-12-18T15:47:10.877128+00:00", "meta": {"OBJECT_NAME": "DUBAISAT-1", "OBJECT_ID": "2009-041B", "EPOCH": "2025-12-18T06:58:29.759808", "MEAN_MOTION": 14.74619363, "ECCENTRICITY": 0.00093247, "INCLINATION": 97.9795, "RA_OF_ASC_NODE": 122.8888, "ARG_OF_PERICENTER": 294.7299, "MEAN_ANOMALY": 65.2939, "EPHEMERIS_TYPE": 0, "CLASSIFICATION_TYPE": "U", "NORAD_CAT_ID": 35682, "ELEMENT_SET_NO": 999, "REV_AT_EPOCH": 87843, "BSTAR": 0.00016705791, "MEAN_MOTION_DOT": 1.064e-05, "MEAN_MOTION_DDOT": 0}, "tle": {"line1": "1 35682U 09041B   25352.29062222  .00001064  00000+0  16706-3 0  9993", "line2": "2 35682  97.9795 122.8888 0009324 294.7299  65.2939 14.74619363878437"}}, "geometry": {"type": "Point", "coordinates": [-51.77064800345346, 31.74622599585798]}}, {"type": "Feature", "properties": {"norad_id": 35931, "name": "OCEANSAT-2", "group": "resource", "lat": 9.60725188096845, "lon": 174.06039583579923, "alt_km": 905.7090442178596, "timestamp": "2025-12-18T15:47:10.877140+00:00", "meta": {"OBJECT_NAME": "OCEANSAT-2", "OBJECT_ID": "2009-051A", "EPOCH": "2025-12-18T06:23:53.959200", "MEAN_MOTION": 13.99623526, "ECCENTRICITY": 0.00160735, "INCLINATION": 98.2218, "RA_OF_ASC_NODE": 352.3066, "ARG_OF_PERICENTER": 30.5811, "MEAN_ANOMALY": 329.629, "EPHEMERIS_TYPE": 0, "CLASSIFICATION_TYPE": "U", "NORAD_CAT_ID": 35931, "ELEMENT_SET_NO": 999, "REV_AT_EPOCH": 85402, "BSTAR": -6.7121324e-05, "MEAN_MOTION_DOT": -1.36e-06, "MEAN_MOTION_DDOT": 0}, "tle": {"line1": "1 35931U 09051A   25352.26659675 -.00000136  00000+0 -67121-4 0  9991", "line2": "2 35931  98.2218 352.3066 0016073  30.5811 329.6290 13.99623526854029"}}, "geometry": {"type": "Point", "coordinates": [174.06039583579923, 9.60725188096845]}}, {"type": "Feature", "properties": {"norad_id": 35946, "name": "WORLDVIEW-2 (WV-2)", "group": "resource", "lat": 21.723938750675472, "lon": 60.253871243933574, "alt_km": 762.806395496119, "timestamp": "2025-12-18T15:47:10.877154+00:00", "meta": {"OBJECT_NAME": "WORLDVIEW-2 (WV-2)", "OBJECT_ID": "2009-055A", "EPOCH": "2025-12-18T05:39:46.558656", "MEAN_MOTION": 14.37726407, "ECCENTRICITY": 0.00050055, "INCLINATION": 98.4783, "RA_OF_ASC_NODE": 63.245, "ARG_OF_PERICENTER": 57.2437, "MEAN_ANOMALY": 302.9232, "EPHEMERIS_TYPE": 0, "CLASSIFICATION_TYPE": "U", "NORAD_CAT_ID": 35946, "ELEMENT_SET_NO": 999, "REV_AT_EPOCH": 84964, "BSTAR": 6.2004655e-05, "MEAN_MOTION_DOT": 1.43e-06, "MEAN_MOTION_DDOT": 0}, "tle": {"line1": "1 35946U 09055A   25352.23595554  .00000143  00000+0  62005-4 0  9995", "line2": "2 35946  98.4783  63.2450 0005005  57.2437 302.9232 14.37726407849649"}}, "geometry": {"type": "Point", "coordinates": [60.253871243933574, 21.723938750675472]}}, {"type": "Feature", "properties": {"norad_id": 36036, "name": "SMOS", "group": "resource", "lat": 76.52718415006368, "lon": 35.9049835530061, "alt_km": 751.3624581534859, "timestamp": "2025-12-18T15:47:10.877165+00:00", "meta": {"OBJECT_NAME": "SMOS", "OBJECT_ID": "2009-059A", "EPOCH": "2025-12-18T01:58:40.326816", "MEAN_MOTION": 14.3974595, "ECCENTRICITY": 0.00010947, "INCLINATION": 98.438, "RA_OF_ASC_NODE": 177.0517, "ARG_OF_PERICENTER": 82.5578, "MEAN_ANOMALY": 277.5734, "EPHEMERIS_TYPE": 0, "CLASSIFICATION_TYPE": "U", "NORAD_CAT_ID": 36036, "ELEMENT_SET_NO": 999, "REV_AT_EPOCH": 84739, "BSTAR": 0.00011713656, "MEAN_MOTION_DOT": 3.24e-06, "MEAN_MOTION_DDOT": 0}, "tle": {"line1": "1 36036U 09059A   25352.08241119  .00000324  00000+0  11714-3 0  9999", "line2": "2 36036  98.4380 177.0517 0001094  82.5578 277.5734 14.39745950847392"}}, "geometry": {"type": "Point", "coordinates": [35.9049835530061, 76.52718415006368]}}, {"type": "Feature", "properties": {"norad_id": 36110, "name": "YAOGAN-7", "group": "resource", "lat": 13.579549529234294, "lon": -127.56066055030621, "alt_km": 643.8217458468762, "timestamp": "2025-12-18T15:47:10.877175+00:00", "meta": {"OBJECT_NAME": "YAOGAN-7", "OBJECT_ID": "2009-069A", "EPOCH": "2025-12-18T05:58:25.938912", "MEAN_MOTION": 14.77740552, "ECCENTRICITY": 0.00233338, "INCLINATION": 98.0296, "RA_OF_ASC_NODE": 233.9861, "ARG_OF_PERICENTER": 262.4937, "MEAN_ANOMALY": 97.3622, "EPHEMERIS_TYPE": 0, "CLASSIFICATION_TYPE": "U", "NORAD_CAT_ID": 36110, "ELEMENT_SET_NO": 999, "REV_AT_EPOCH": 86290, "BSTAR": 7.9361225e-05, "MEAN_MOTION_DOT": 5.18e-06, "MEAN_MOTION_DDOT": 0}, "tle": {"line1": "1 36110U 09069A   25352.24891133  .00000518  00000+0  79361-4 0  9996", "line2": "2 36110  98.0296 233.9861 0023333 262.4937  97.3622 14.77740552862902"}}, "geometry": {"type": "Point", "coordinates": [-127.56066055030621, 13.579549529234294]}}, {"type": "Feature", "properties": {"norad_id": 36605, "name": "TANDEM-X", "group": "resource", "lat": 59.11026205333652, "lon": -14.673135200946966, "alt_km": 501.4959641382684, "timestamp": "2025-12-18T15:47:10.877186+00:00", "meta": {"OBJECT_NAME": "TANDEM-X", "OBJECT_ID": "2010-030A", "EPOCH": "2025-12-17T14:13:48.411552", "MEAN_MOTION": 15.19149806, "ECCENTRICITY": 0.00018481, "INCLINATION": 97.4443, "RA_OF_ASC_NODE": 356.9023, "ARG_OF_PERICENTER": 79.8054, "MEAN_ANOMALY": 280.3389, "EPHEMERIS_TYPE": 0, "CLASSIFICATION_TYPE": "U", "NORAD_CAT_ID": 36605, "ELEMENT_SET_NO": 999, "REV_AT_EPOCH": 85907, "BSTAR": 4.6537622e-05, "MEAN_MOTION_DOT": 9.1e-06, "MEAN_MOTION_DDOT": 0}, "tle": {"line1": "1 36605U 10030A   25351.59292143  .00000910  00000+0  46538-4 0  9994", "line2": "2 36605  97.4443 356.9023 0001848  79.8054 280.3389 15.19149806859071"}}, "geometry": {"type": "Point", "coordinates": [-14.673135200946966, 59.11026205333652]}}, {"type": "Feature", "properties": {"norad_id": 36795, "name": "CARTOSAT-2B", "group": "resource", "lat": -37.84681463959751, "lon": 47.59841009517658, "alt_km": 640.8564449025462, "timestamp": "2025-12-18T15:47:10.877196+00:00", "meta": {"OBJECT_NAME": "CARTOSAT-2B", "OBJECT_ID": "2010-035A", "EPOCH": "2025-12-18T07:50:20.262624", "MEAN_MOTION": 14.78733618, "ECCENTRICITY": 0.00128996, "INCLINATION": 97.7852, "RA_OF_ASC_NODE": 41.1759, "ARG_OF_PERICENTER": 59.9672, "MEAN_ANOMALY": 300.2817, "EPHEMERIS_TYPE": 0, "CLASSIFICATION_TYPE": "U", "NORAD_CAT_ID": 36795, "ELEMENT_SET_NO": 999, "REV_AT_EPOCH": 83312, "BSTAR": 0.00011317003, "MEAN_MOTION_DOT": 7.82e-06, "MEAN_MOTION_DDOT": 0}, "tle": {"line1": "1 36795U 10035A   25352.32662341  .00000782  00000+0  11317-3 0  9995", "line2": "2 36795  97.7852  41.1759 0012899  59.9672 300.2817 14.78733618833120"}}, "geometry": {"type": "Point", "coordinates": [47.59841009517658, -37.84681463959751]}}, {"type": "Feature", "properties": {"norad_id": 36834, "name": "YAOGAN-10", "group": "resource", "lat": 12.21284409332783, "lon": -165.84003134579277, "alt_km": 615.9988875530653, "timestamp": "2025-12-18T15:47:10.877207+00:00", "meta": {"OBJECT_NAME": "YAOGAN-10", "OBJECT_ID": "2010-038A", "EPOCH": "2025-12-18T07:31:44.092128", "MEAN_MOTION": 14.84629859, "ECCENTRICITY": 0.00014207, "INCLINATION": 97.9138, "RA_OF_ASC_NODE": 12.0932, "ARG_OF_PERICENTER": 81.4672, "MEAN_ANOMALY": 48.3051, "EPHEMERIS_TYPE": 0, "CLASSIFICATION_TYPE": "U", "NORAD_CAT_ID": 36834, "ELEMENT_SET_NO": 999, "REV_AT_EPOCH": 83036, "BSTAR": 0.00025612261, "MEAN_MOTION_DOT": 2.111e-05, "MEAN_MOTION_DDOT": 0}, "tle": {"line1": "1 36834U 10038A   25352.31370477  .00002111  00000+0  25612-3 0  9998", "line2": "2 36834  97.9138  12.0932 0001420  81.4672  48.3051 14.84629859830362"}}, "geometry": {"type": "Point", "coordinates": [-165.84003134579277, 12.21284409332783]}}]}